GLOBALSTAR M045 [-]     
1 25676U 99019A   23353.50307079 -.00000053  00000+0  35378-3 0  9998
2 25676  51.9986  60.5345 0000941 184.3298 277.8105 12.27021031126400
GLOBALSTAR M044 [-]     
1 25678U 99019C   23353.32247758 -.00000095  00000+0 -16277-3 0  9991
2 25678  51.9992  36.0879 0006543  70.2190  11.4417 11.90226114106322
GLOBALSTAR M042 [-]     
1 25679U 99019D   23353.60724421 -.00000056  00000+0  34104-3 0  9995
2 25679  51.9989 151.0967 0002020 239.0206 199.5291 12.22053389118558
GLOBALSTAR M025 [-]     
1 25770U 99031A   23353.39111054 -.00000061  00000+0  21431-3 0  9994
2 25770  51.9842 343.6382 0001258 321.8719 194.0455 11.22548232420417
GLOBALSTAR M049 [-]     
1 25771U 99031B   23353.31429613 -.00000090  00000+0 -87367-3 0  9993
2 25771  51.9903 351.1459 0002944 175.1041 184.9785 11.12102356 56697
GLOBALSTAR M047 [-]     
1 25772U 99031C   23353.40578020 -.00000062  00000+0  20303-3 0  9996
2 25772  51.9859  40.0494 0016251  47.2584 312.9587 11.31917318409304
GLOBALSTAR M052 [-]     
1 25773U 99031D   23353.56590882 -.00000089  00000+0 -78958-3 0  9993
2 25773  51.9861 106.9184 0001928  14.3130  70.0917 11.15047308417643
